[{"OBJECT_NAME":"NUSAT-48 (HENRIETTA LEAVITT)","OBJECT_ID":"2024-149AG","EPOCH":"2026-03-09T19:19:17.269536","MEAN_MOTION":15.29812597,"ECCENTRICITY":0.00027538,"INCLINATION":97.3923,"RA_OF_ASC_NODE":150.8264,"ARG_OF_PERICENTER":263.3026,"MEAN_ANOMALY":96.7901,"EPHEMERIS_TYPE":0,"CLASSIFICATION_TYPE":"U","NORAD_CAT_ID":60498,"ELEMENT_SET_NO":999,"REV_AT_EPOCH":8694,"BSTAR":0.00045211745,"MEAN_MOTION_DOT":0.00012988,"MEAN_MOTION_DDOT":0},{"OBJECT_NAME":"STARLINK-36183","OBJECT_ID":"2025-303L","EPOCH":"2026-03-09T00:59:36.332736","MEAN_MOTION":15.27587617,"ECCENTRICITY":0.00017714,"INCLINATION":43.0008,"RA_OF_ASC_NODE":314.5763,"ARG_OF_PERICENTER":267.5782,"MEAN_ANOMALY":92.4867,"EPHEMERIS_TYPE":0,"CLASSIFICATION_TYPE":"U","NORAD_CAT_ID":67173,"ELEMENT_SET_NO":999,"REV_AT_EPOCH":1263,"BSTAR":0.0016612908,"MEAN_MOTION_DOT":0.00045748,"MEAN_MOTION_DDOT":0}]
