NUSAT-48 (HENRIETTA LE*)
1 60498U 24149AG  26068.80506098  .00012988  00000+0  45212-3 0  9999
2 60498  97.3923 150.8264 0002754 263.3026  96.7901 15.29812597 86946
STARLINK-36183          
1 67173U 25303L   26068.04139274  .00045748  00000+0  16613-2 0  9995
2 67173  43.0008 314.5763 0001771 267.5782  92.4867 15.27587617 12630
